[
    {
        "Altitude(m)": 604969.0891252606,
        "Argument of Periapsis(deg)": 0.0,
        "Eccentricity": 0.0,
        "Inclination(deg)": 60.0,
        "Latitude(deg)": -0.0926514583958106,
        "Longitude(deg)": -0.022472208685634012,
        "Mean Anomaly(deg)": 0.0,
        "RAAN(deg)": 100.0,
        "Satellite Name": "Test1 440",
        "Satellite Number": 440,
        "Semi-Major Axis(m)": 6980739.136638005,
        "Time(s)": 0
    },
    {
        "Altitude(m)": 604900.0286894791,
        "Argument of Periapsis(deg)": 0.00010418945913296404,
        "Eccentricity": 0.0,
        "Inclination(deg)": 60.0,
        "Latitude(deg)": 0.4477749828049695,
        "Longitude(deg)": 0.24564973367723522,
        "Mean Anomaly(deg)": 0.6201061454618275,
        "RAAN(deg)": 99.99957995086025,
        "Satellite Name": "Test1 440",
        "Satellite Number": 440,
        "Semi-Major Axis(m)": 6980739.136638005,
        "Time(s)": 10
    }
]